[{"OBJECT_NAME":"STARLINK-1759","OBJECT_ID":"2020-062R","EPOCH":"2026-03-10T00:00:02.999808","MEAN_MOTION":15.59261383,"ECCENTRICITY":0.0003276,"INCLINATION":53.0236,"RA_OF_ASC_NODE":329.2132,"ARG_OF_PERICENTER":73.9633,"MEAN_ANOMALY":239.4203,"EPHEMERIS_TYPE":0,"CLASSIFICATION_TYPE":"U","NORAD_CAT_ID":46340,"ELEMENT_SET_NO":999,"REV_AT_EPOCH":588,"BSTAR":0.0015925687,"MEAN_MOTION_DOT":0.00129033,"MEAN_MOTION_DDOT":0},{"OBJECT_NAME":"STARLINK-36694","OBJECT_ID":"2026-022F","EPOCH":"2026-03-09T22:00:01.999584","MEAN_MOTION":15.72360469,"ECCENTRICITY":0.00015317,"INCLINATION":97.2843,"RA_OF_ASC_NODE":102.9045,"ARG_OF_PERICENTER":71.9582,"MEAN_ANOMALY":320.2172,"EPHEMERIS_TYPE":0,"CLASSIFICATION_TYPE":"U","NORAD_CAT_ID":67653,"ELEMENT_SET_NO":999,"REV_AT_EPOCH":607,"BSTAR":-0.016435758,"MEAN_MOTION_DOT":-0.01891106,"MEAN_MOTION_DDOT":0}]
